{
  "norad_id": 66974,
  "name": "STARLINK-35780",
  "history": [
    {
      "epoch": "2026-03-28T12:43:29.456256",
      "apogee_km": 483.9782330065618,
      "perigee_km": 482.03762677459144,
      "latitude_deg": 40.06061297820464,
      "longitude_deg": -151.70060416008346,
      "semi_major_axis_km": 6861.144929890576,
      "eccentricity": 0.00014142,
      "inclination_deg": 42.9978,
      "raan_deg": 276.6309,
      "arg_perigee_deg": 258.2027,
      "mean_anomaly_deg": 101.8666,
      "mean_motion_rev_day": 15.27593748
    }
  ]
}