{"fetched_at":"2026-03-29T16:36:15Z","count":15609,"tles":[{"name":"STARLINK-35780","line1":"1 66974U 25288R   26087.53020204  .00022585  00000+0  82740-3 0  9991","line2":"2 66974  42.9978 276.6309 0001414 258.2027 101.8666 15.27593748 18178","category":"Starlink"}]}